DMSP 5D-3 F16 (USA 172) 
1 28054U 03048A   26185.21411236  .00000007  00000+0  27369-4 0  9993
2 28054  98.9886 209.1547 0008203  97.9187 333.4530 14.14484458171891
METEOSAT-9 (MSG-2)      
1 28912U 05049B   26184.73229576  .00000132  00000+0  00000+0 0  9996
2 28912   9.3963  54.0026 0002460   0.5032 176.6249  1.00267681  7163
DMSP 5D-3 F17 (USA 191) 
1 29522U 06050A   26185.28181523  .00000050  00000+0  48373-4 0  9996
2 29522  98.7381 191.5022 0010385  13.9923 346.1537 14.14995289 14840
FENGYUN 3A              
1 32958U 08026A   26185.10432972  .00000096  00000+0  65911-4 0  9993
2 32958  98.6885 125.6212 0009887  80.3156 279.9137 14.19574733937806
GOES 14                 
1 35491U 09033A   26185.24832194 -.00000331  00000+0  00000+0 0  9998
2 35491   1.7311  82.8468 0002158  28.9935  31.6064  1.00104442  6760
DMSP 5D-3 F18 (USA 210) 
1 35951U 09057A   26185.18357922  .00000292  00000+0  17411-3 0  9992
2 35951  98.9047 165.9163 0010561 197.1021 162.9797 14.14906534861998
EWS-G2 (GOES 15)        
1 36411U 10008A   26185.16344380  .00000033  00000+0  00000+0 0  9999
2 36411   1.3214  82.6160 0005388  47.6160 274.2407  1.00268329 59808
COMS 1                  
1 36744U 10032A   26185.00958565 -.00000117  00000+0  00000+0 0  9998
2 36744   4.8455  75.1578 0011691  14.2192 202.5663  0.99169253 51253
FENGYUN 3B              
1 37214U 10059A   26185.34634639  .00000447  00000+0  25445-3 0  9999
2 37214  98.9605 231.4332 0022813 136.0996 281.9488 14.14846019809852
SUOMI NPP               
1 37849U 11061A   26185.25717999  .00000080  00000+0  59213-4 0  9992
2 37849  98.7955 126.0168 0000633 298.9775  61.1337 14.19520932760863
METEOSAT-10 (MSG-3)     
1 38552U 12035B   26185.00837231  .00000003  00000+0  00000+0 0  9991
2 38552   4.7088  60.9370 0001504  16.7580 207.4561  1.00269590 51029
METOP-B                 
1 38771U 12049A   26185.15384021  .00000113  00000+0  71615-4 0  9996
2 38771  98.6495 236.3139 0001242 320.4603  39.6484 14.21444055715673
INSAT-3D                
1 39216U 13038B   26183.85162303 -.00000329  00000+0  00000+0 0  9997
2 39216   1.9642  82.3574 0001056  15.1644 259.4386  1.00268722 47238
FENGYUN 3C              
1 39260U 13052A   26185.28812203  .00000094  00000+0  68881-4 0  9996
2 39260  98.4997 158.3784 0014223 338.9204  21.1383 14.15758995660986
METEOR-M 2              
1 40069U 14037A   26185.25035064  .00000385  00000+0  19516-3 0  9991
2 40069  98.5125 160.3853 0005856   0.0662   0.0515 14.21467624621743
HIMAWARI-8              
1 40267U 14060A   26185.25005529 -.00000264  00000+0  00000+0 0  9991
2 40267   0.0184  22.2355 0000996  90.4801  40.2456  1.00271207 42938
FENGYUN 2G              
1 40367U 14090A   26184.94955464 -.00000291  00000+0  00000+0 0  9992
2 40367   5.6789  72.6184 0003629 150.1614 140.5668  1.00266139 42164
METEOSAT-11 (MSG-4)     
1 40732U 15034A   26185.22407735  .00000072  00000+0  00000+0 0  9998
2 40732   3.2431  71.0038 0002243 349.5927 311.6119  1.00268421  7384
ELEKTRO-L 2             
1 41105U 15074A   26184.93418214 -.00000108  00000+0  00000+0 0  9999
2 41105   6.7340  70.3182 0000631 256.9138 276.4845  1.00273831 38673
SENTINEL-3A             
1 41335U 16011A   26185.25813103  .00000126  00000+0  70194-4 0  9993
2 41335  98.6242 252.3961 0001421  93.9550 266.1793 14.26737477540490
INSAT-3DR               
1 41752U 16054A   26183.45463633 -.00000066  00000+0  00000+0 0  9990
2 41752   0.1421  85.9447 0010094 186.2693 245.9301  1.00272241 35972
HIMAWARI-9              
1 41836U 16064A   26183.69547150 -.00000265  00000+0  00000+0 0  9998
2 41836   0.0302 267.9360 0001438 225.4185 178.4790  1.00268231 35361
GOES 16                 
1 41866U 16071A   26185.20151130 -.00000079  00000+0  00000+0 0  9990
2 41866   0.3801  85.6628 0000532  44.8037 119.6078  1.00271939 35271
FENGYUN 4A              
1 41882U 16077A   26184.97961319 -.00000346  00000+0  00000+0 0  9992
2 41882   2.3628  80.1040 0007941 157.9543 160.3533  1.00275329 35091
CYGFM05                 
1 41884U 16078A   26185.23436106  .00032089  00000+0  42187-3 0  9990
2 41884  34.9560 147.6429 0007904 298.1840  61.8086 15.57413015531414
CYGFM04                 
1 41885U 16078B   26185.15087955  .00039831  00000+0  43073-3 0  9993
2 41885  34.9322 115.0162 0006299 332.9958  27.0440 15.62487531531651
CYGFM02                 
1 41886U 16078C   26185.11825179  .00046243  00000+0  44063-3 0  9993
2 41886  34.9400 109.2615 0007128 336.0808  23.9587 15.65646594531823
CYGFM01                 
1 41887U 16078D   26185.27957501  .00033841  00000+0  43309-3 0  9998
2 41887  34.9393 148.2595 0007863 293.2007  66.7889 15.58118488531374
CYGFM08                 
1 41888U 16078E   26185.20916719  .00039009  00000+0  44817-3 0  9995
2 41888  34.9427 127.8483 0008372 322.3956  37.6184 15.60915053531635
CYGFM07                 
1 41890U 16078G   26185.16723535  .00037722  00000+0  43199-3 0  9997
2 41890  34.9444 116.4548 0006664 334.0410  25.9981 15.61020115531654
CYGFM03                 
1 41891U 16078H   26185.13833359  .00038475  00000+0  44079-3 0  9995
2 41891  34.9398 118.5790 0006662 320.6763  39.3478 15.61006681531624
