OBJECT_NAME,OBJECT_ID,EPOCH,MEAN_MOTION,ECCENTRICITY,INCLINATION,RA_OF_ASC_NODE,ARG_OF_PERICENTER,MEAN_ANOMALY,EPHEMERIS_TYPE,CLASSIFICATION_TYPE,NORAD_CAT_ID,ELEMENT_SET_NO,REV_AT_EPOCH,BSTAR,MEAN_MOTION_DOT,MEAN_MOTION_DDOT
DMSP 5D-3 F16 (USA 172),2003-048A,2026-07-04T05:08:19.307904,14.14484458,.00082035,98.9886,209.1547,97.9187,333.4530,0,U,28054,999,17189,.27369001E-4,.7E-7,0
METEOSAT-9 (MSG-2),2005-049B,2026-07-03T17:34:30.353664,1.00267681,.00024606,9.3963,54.0026,0.5032,176.6249,0,U,28912,999,716,0,.132E-5,0
DMSP 5D-3 F17 (USA 191),2006-050A,2026-07-04T06:45:48.835872,14.14995289,.00103859,98.7381,191.5022,13.9923,346.1537,0,U,29522,999,1484,.4837282E-4,.5E-6,0
FENGYUN 3A,2008-026A,2026-07-04T02:30:14.087808,14.19574733,.00098872,98.6885,125.6212,80.3156,279.9137,0,U,32958,999,93780,.65910645E-4,.96E-6,0
GOES 14,2009-033A,2026-07-04T05:57:35.015616,1.00104442,.00021584,1.7311,82.8468,28.9935,31.6064,0,U,35491,999,676,0,-.331E-5,0
DMSP 5D-3 F18 (USA 210),2009-057A,2026-07-04T04:24:21.244608,14.14906534,.00105612,98.9047,165.9163,197.1021,162.9797,0,U,35951,999,86199,.17410507E-3,.292E-5,0
EWS-G2 (GOES 15),2010-008A,2026-07-04T03:55:21.544320,1.00268329,.00053881,1.3214,82.6160,47.6160,274.2407,0,U,36411,999,5980,0,.33E-6,0
COMS 1,2010-032A,2026-07-04T00:13:48.200160,0.99169253,.00116916,4.8455,75.1578,14.2192,202.5663,0,U,36744,999,5125,0,-.117E-5,0
FENGYUN 3B,2010-059A,2026-07-04T08:18:44.328096,14.14846019,.00228138,98.9605,231.4332,136.0996,281.9488,0,U,37214,999,80985,.25444513E-3,.447E-5,0
SUOMI NPP,2011-061A,2026-07-04T06:10:20.351136,14.19520932,.00006332,98.7955,126.0168,298.9775,61.1337,0,U,37849,999,76086,.59212763E-4,.8E-6,0
METEOSAT-10 (MSG-3),2012-035B,2026-07-04T00:12:03.367584,1.00269590,.0001504,4.7088,60.9370,16.7580,207.4561,0,U,38552,999,5102,0,.3E-7,0
METOP-B,2012-049A,2026-07-04T03:41:31.794144,14.21444055,.00012423,98.6495,236.3139,320.4603,39.6484,0,U,38771,999,71567,.71614744E-4,.113E-5,0
INSAT-3D,2013-038B,2026-07-02T20:26:20.229792,1.00268722,.00010564,1.9642,82.3574,15.1644,259.4386,0,U,39216,999,4723,0,-.329E-5,0
FENGYUN 3C,2013-052A,2026-07-04T06:54:53.743392,14.15758995,.00142235,98.4997,158.3784,338.9204,21.1383,0,U,39260,999,66098,.6888127E-4,.94E-6,0
METEOR-M 2,2014-037A,2026-07-04T06:00:30.295296,14.21467624,.00058561,98.5125,160.3853,0.0662,0.0515,0,U,40069,999,62174,.19516207E-3,.385E-5,0
HIMAWARI-8,2014-060A,2026-07-04T06:00:04.777056,1.00271207,.00009962,0.0184,22.2355,90.4801,40.2456,0,U,40267,999,4293,0,-.264E-5,0
FENGYUN 2G,2014-090A,2026-07-03T22:47:21.520896,1.00266139,.0003629,5.6789,72.6184,150.1614,140.5668,0,U,40367,999,4216,0,-.291E-5,0
METEOSAT-11 (MSG-4),2015-034A,2026-07-04T05:22:40.283040,1.00268421,.00022435,3.2431,71.0038,349.5927,311.6119,0,U,40732,999,738,0,.72E-6,0
ELEKTRO-L 2,2015-074A,2026-07-03T22:25:13.336896,1.00273831,.00006313,6.7340,70.3182,256.9138,276.4845,0,U,41105,999,3867,0,-.108E-5,0
SENTINEL-3A,2016-011A,2026-07-04T06:11:42.520992,14.26737477,.00014213,98.6242,252.3961,93.9550,266.1793,0,U,41335,999,54049,.70193557E-4,.126E-5,0
INSAT-3DR,2016-054A,2026-07-02T10:54:40.578912,1.00272241,.0010094,0.1421,85.9447,186.2693,245.9301,0,U,41752,999,3597,0,-.66E-6,0
HIMAWARI-9,2016-064A,2026-07-02T16:41:28.737600,1.00268231,.00014383,0.0302,267.9360,225.4185,178.4790,0,U,41836,999,3536,0,-.265E-5,0
GOES 16,2016-071A,2026-07-04T04:50:10.576320,1.00271939,.00005327,0.3801,85.6628,44.8037,119.6078,0,U,41866,999,3527,0,-.79E-6,0
FENGYUN 4A,2016-077A,2026-07-03T23:30:38.579616,1.00275329,.00079414,2.3628,80.1040,157.9543,160.3533,0,U,41882,999,3509,0,-.346E-5,0
CYGFM05,2016-078A,2026-07-04T05:37:28.795584,15.57413015,.00079046,34.9560,147.6429,298.1840,61.8086,0,U,41884,999,53141,.42186979E-3,.32089E-3,0
CYGFM04,2016-078B,2026-07-04T03:37:15.993120,15.62487531,.00062996,34.9322,115.0162,332.9958,27.0440,0,U,41885,999,53165,.43072525E-3,.39831E-3,0
CYGFM02,2016-078C,2026-07-04T02:50:16.954656,15.65646594,.00071284,34.9400,109.2615,336.0808,23.9587,0,U,41886,999,53182,.44062606E-3,.46243E-3,0
CYGFM01,2016-078D,2026-07-04T06:42:35.280864,15.58118488,.00078631,34.9393,148.2595,293.2007,66.7889,0,U,41887,999,53137,.43308756E-3,.33841E-3,0
CYGFM08,2016-078E,2026-07-04T05:01:12.045216,15.60915053,.00083721,34.9427,127.8483,322.3956,37.6184,0,U,41888,999,53163,.44817433E-3,.39009E-3,0
CYGFM07,2016-078G,2026-07-04T04:00:49.134240,15.61020115,.00066641,34.9444,116.4548,334.0410,25.9981,0,U,41890,999,53165,.43199125E-3,.37722E-3,0
CYGFM03,2016-078H,2026-07-04T03:19:12.022176,15.61006681,.00066622,34.9398,118.5790,320.6763,39.3478,0,U,41891,999,53162,.44078769E-3,.38475E-3,0
